{
	"creator": "Satellites plugin version 0.9.2 (updated)",
	"hintColor": [0.4, 0.4, 0.4],
	"satellites": 
	{
		"25290": 
		{
			"comms": [],
			"groups": ["communications", "iridium"],
			"hintColor": [0.21, 0, 0.71],
			"lastUpdated": "2014-10-19T01:02:05",
			"name": "IRIDIUM 67",
			"orbitVisible": false,
			"stdMag": 5.5,
			"tle1": "1 25290U 98021F   14291.46297008  .00000086  00000-0  23509-4 0  7570",
			"tle2": "2 25290  86.3932 270.4668 0002219 102.9706 257.1737 14.34218686865603",
			"visible": false
		},
		"25291": 
		{
			"comms": [],
			"groups": ["communications", "iridium"],
			"hintColor": [0.21, 0, 0.71],
			"lastUpdated": "2014-10-19T01:02:05",
			"name": "IRIDIUM 68",
			"orbitVisible": false,
			"stdMag": 6,
			"tle1": "1 25291U 98021G   14291.46931331  .00000084  00000-0  23073-4 0  9818",
			"tle2": "2 25291  86.3932 270.5646 0002229 100.8667 259.2780 14.34218244865572",
			"visible": false
		},
		"25319": 
		{
			"comms": [],
			"groups": ["communications", "iridium"],
			"hintColor": [0.21, 0, 0.71],
			"lastUpdated": "2014-10-19T01:02:05",
			"name": "IRIDIUM 69",
			"orbitVisible": false,
			"stdMag": 5.5,
			"tle1": "1 25319U 98026A   14291.47977118  .00000221  00000-0  66306-4 0  7714",
			"tle2": "2 25319  86.3951 294.7919 0002001 150.6599   1.3630 14.38158822863207",
			"visible": false
		},
		"25320": 
		{
			"comms": [],
			"groups": ["communications", "iridium"],
			"hintColor": [0.21, 0, 0.71],
			"lastUpdated": "2014-10-19T01:02:05",
			"name": "IRIDIUM 71",
			"orbitVisible": false,
			"stdMag": 5.5,
			"tle1": "1 25320U 98026B   14291.48103623  .00000184  00000-0  53556-4 0  4908",
			"tle2": "2 25320  86.3936 291.1543 0000591  45.8165 107.4240 14.38629634863593",
			"visible": false
		},
		"25338": 
		{
			"comms": [
			{
				"description": "downlink",
				"frequency": 137.5,
				"modulation": "AM/APT"
			}],
			"groups": ["scientific", "weather"],
			"hintColor": [0.08, 0.33, 0.74],
			"lastUpdated": "2014-10-19T01:02:05",
			"name": "NOAA 15",
			"orbitVisible": true,
			"stdMag": 4.5,
			"tle1": "1 25338U 98030A   14291.46115547  .00000053  00000-0  41221-4 0  3852",
			"tle2": "2 25338  98.7609 285.1356 0011427 146.2920   6.3548 14.25486181854408",
			"visible": true
		},
		"25342": 
		{
			"comms": [],
			"groups": ["communications", "iridium"],
			"hintColor": [0.21, 0, 0.71],
			"lastUpdated": "2014-10-19T01:02:05",
			"name": "IRIDIUM 70",
			"orbitVisible": false,
			"stdMag": 5.5,
			"tle1": "1 25342U 98032A   14291.44629683  .00000089  00000-0  24658-4 0    51",
			"tle2": "2 25342  86.3938 270.7699 0002118 100.4734   9.9992 14.34217497859671",
			"visible": false
		},
		"25343": 
		{
			"comms": [],
			"groups": ["communications", "iridium"],
			"hintColor": [0.21, 0, 0.71],
			"lastUpdated": "2014-10-19T01:02:05",
			"name": "IRIDIUM 72",
			"orbitVisible": false,
			"stdMag": 5.5,
			"tle1": "1 25343U 98032B   14291.50458876  .00000085  00000-0  23446-4 0    75",
			"tle2": "2 25343  86.3932 270.4210 0002196 103.0513  13.6609 14.34218881859688",
			"visible": false
		},
		"25344": 
		{
			"comms": [],
			"groups": ["communications", "iridium"],
			"hintColor": [0.21, 0, 0.71],
			"lastUpdated": "2014-10-19T01:02:05",
			"name": "IRIDIUM 73",
			"orbitVisible": false,
			"stdMag": 5,
			"tle1": "1 25344U 98032C   14291.46233416  .00000238  00000-0  58026-4 0  8702",
			"tle2": "2 25344  86.4420 253.8502 0003014  96.7502  48.2098 14.48406225866711",
			"visible": false
		},
		"25345": 
		{
			"comms": [],
			"groups": ["communications", "iridium"],
			"hintColor": [0.21, 0, 0.71],
			"lastUpdated": "2014-10-19T01:02:05",
			"name": "IRIDIUM 74",
			"orbitVisible": false,
			"stdMag": 5,
			"tle1": "1 25345U 98032D   14291.50344310  .00000119  00000-0  29614-4 0   424",
			"tle2": "2 25345  86.4444 270.7226 0002445 114.5652   0.7126 14.42964799862485",
			"visible": false
		},
		"25346": 
		{
			"comms": [],
			"groups": ["communications", "iridium"],
			"hintColor": [0.21, 0, 0.71],
			"lastUpdated": "2014-10-19T01:02:05",
			"name": "IRIDIUM 75",
			"orbitVisible": false,
			"stdMag": 6,
			"tle1": "1 25346U 98032E   14291.51106837  .00000084  00000-0  22794-4 0   261",
			"tle2": "2 25346  86.3933 270.6358 0002248 102.8453  14.5924 14.34218037860253",
			"visible": false
		},
		"25358": 
		{
			"comms": [],
			"groups": ["geostationary"],
			"lastUpdated": "2014-10-19T01:02:05",
			"name": "THOR III",
			"orbitVisible": false,
			"tle1": "1 25358U 98035A   14290.20848669 -.00000051  00000-0  00000+0 0  6057",
			"tle2": "2 25358   3.6772  65.6797 0002442 143.8690 246.8723  1.00273269 59997",
			"visible": false
		},
		"25371": 
		{
			"comms": [],
			"groups": ["geostationary"],
			"lastUpdated": "2014-10-19T01:02:05",
			"name": "INTELSAT 805 (IS-805)",
			"orbitVisible": false,
			"stdMag": 4,
			"tle1": "1 25371U 98037A   14291.24623399 -.00000299  00000-0  10000-3 0  4978",
			"tle2": "2 25371   0.0521  75.6275 0003146 128.8691 215.3397  1.00272792 59856",
			"visible": false
		},
		"25397": 
		{
			"comms": [],
			"groups": ["non-operational", "amateur"],
			"hintColor": [0.3, 0.2, 0],
			"lastUpdated": "2014-10-19T01:02:05",
			"name": "TECHSAT 1B (GO-32)",
			"orbitVisible": false,
			"stdMag": 8.5,
			"tle1": "1 25397U 98043D   14290.47886326 -.00000005  00000-0  16197-4 0  4775",
			"tle2": "2 25397  98.4853 243.9960 0000705  20.6849  93.6009 14.23471187845269",
			"visible": false
		},
		"25400": 
		{
			"comms": [],
			"groups": ["visual"],
			"lastUpdated": "2014-10-19T01:02:05",
			"name": "SL-16 R/B",
			"orbitVisible": false,
			"stdMag": 2,
			"tle1": "1 25400U 98043G   14291.48348723 -.00000006  00000-0  14934-4 0  7867",
			"tle2": "2 25400  98.3503 262.4276 0008717 264.1948  95.8239 14.25263868846501",
			"visible": false
		},
		"25407": 
		{
			"comms": [],
			"groups": ["visual"],
			"lastUpdated": "2014-10-19T01:02:05",
			"name": "SL-16 R/B",
			"orbitVisible": false,
			"stdMag": 2,
			"tle1": "1 25407U 98045B   14291.16172953 -.00000293  00000-0 -12525-3 0  5951",
			"tle2": "2 25407  71.0114 286.0857 0010080 257.2101 172.5233 14.15677433838471",
			"visible": false
		},
		"25431": 
		{
			"comms": [],
			"groups": ["communications", "iridium"],
			"hintColor": [0.21, 0, 0.71],
			"lastUpdated": "2014-10-19T01:02:05",
			"name": "IRIDIUM 3",
			"orbitVisible": false,
			"stdMag": 5.5,
			"tle1": "1 25431U 98048A   14291.50405604  .00000093  00000-0  26143-4 0  9289",
			"tle2": "2 25431  86.3927 302.2619 0002084 104.8097  56.9486 14.34217882846194",
			"visible": false
		},
		"25432": 
		{
			"comms": [],
			"groups": ["communications", "iridium"],
			"hintColor": [0.21, 0, 0.71],
			"lastUpdated": "2014-10-19T01:02:05",
			"name": "IRIDIUM 76",
			"orbitVisible": false,
			"stdMag": 5.5,
			"tle1": "1 25432U 98048B   14291.51333885  .00000081  00000-0  21711-4 0  8600",
			"tle2": "2 25432  86.3924 302.0432 0002271 101.7017   9.7591 14.34216713846183",
			"visible": false
		},
		"25462": 
		{
			"comms": [],
			"groups": ["geostationary"],
			"lastUpdated": "2014-10-19T01:02:05",
			"name": "ASTRA 2A",
			"orbitVisible": false,
			"tle1": "1 25462U 98050A   14290.19685377  .00000134  00000-0  00000+0 0  9686",
			"tle2": "2 25462   0.0108 154.4372 0004032   9.0682 321.1843  1.00273089 59107",
			"visible": false
		},
		"25467": 
		{
			"comms": [],
			"groups": ["communications", "iridium"],
			"hintColor": [0.21, 0, 0.71],
			"lastUpdated": "2014-10-19T01:02:05",
			"name": "IRIDIUM 82",
			"orbitVisible": false,
			"stdMag": 5.5,
			"tle1": "1 25467U 98051A   14291.46104820  .00000184  00000-0  58770-4 0  1041",
			"tle2": "2 25467  86.3962  68.6622 0002124 119.8270 240.3137 14.34215204847192",
			"visible": false
		},
		"25468": 
		{
			"comms": [],
			"groups": ["communications", "iridium"],
			"hintColor": [0.21, 0, 0.71],
			"lastUpdated": "2014-10-19T01:02:05",
			"name": "IRIDIUM 81",
			"orbitVisible": false,
			"stdMag": 5.5,
			"tle1": "1 25468U 98051B   14291.45468931  .00000176  00000-0  55776-4 0  9218",
			"tle2": "2 25468  86.3956  68.3663 0002224 110.2923 249.8512 14.34209621843417",
			"visible": false
		},
		"25469": 
		{
			"comms": [],
			"groups": ["communications", "iridium"],
			"hintColor": [0.21, 0, 0.71],
			"lastUpdated": "2014-10-19T01:02:05",
			"name": "IRIDIUM 80",
			"orbitVisible": false,
			"stdMag": 6,
			"tle1": "1 25469U 98051C   14291.44727341  .00000162  00000-0  50801-4 0  9287",
			"tle2": "2 25469  86.3967  68.6145 0002164 111.7134 308.2474 14.34215781843412",
			"visible": false
		},
		"25471": 
		{
			"comms": [],
			"groups": ["communications", "iridium"],
			"hintColor": [0.21, 0, 0.71],
			"lastUpdated": "2014-10-19T01:02:05",
			"name": "IRIDIUM 77",
			"orbitVisible": false,
			"stdMag": 5.5,
			"tle1": "1 25471U 98051E   14291.45377106  .00000005  00000-0 -53031-5 0  1199",
			"tle2": "2 25471  86.3957  68.2813 0001900 106.5784 314.3214 14.34212125848618",
			"visible": false
		},
		"25473": 
		{
			"comms": [],
			"groups": ["geostationary"],
			"lastUpdated": "2014-10-19T01:02:05",
			"name": "INTELSAT 7 (IS-7)",
			"orbitVisible": false,
			"tle1": "1 25473U 98052A   14291.28080606 -.00000030  00000-0  00000+0 0   581",
			"tle2": "2 25473   1.1926  78.8563 0005750 110.7733 299.7859  1.00125740 58932",
			"visible": false
		},
		"25492": 
		{
			"comms": [],
			"groups": ["geostationary"],
			"lastUpdated": "2014-10-19T01:02:05",
			"name": "SIRIUS 3",
			"orbitVisible": false,
			"tle1": "1 25492U 98056B   14291.02329060  .00000094  00000-0  00000+0 0  6606",
			"tle2": "2 25492   4.7691  61.7672 0003031 168.8129 215.4604  1.00273414 58784",
			"visible": false
		}
	},
	"shortName": "satellite orbital data"
}